     3.04           N: GNSS NAV DATA    E: Galileo          RINEX VERSION / TYPE
BNC 2.13.0          BKG Frankfurt       20210313 231614 UTC PGM / RUN BY / DATE
Concatenated RINEX files (12)                               COMMENT
                                                            END OF HEADER
E30 2021 03 13 22 30 00 3.109367855360e-03-3.059597020180e-11 0.000000000000e+00
     1.030000000000e+02-2.175000000000e+01 3.516932208630e-09 6.235694179180e-01
    -1.171603798870e-06 5.195782287050e-04 1.857057213780e-06 5.440592075350e+03
     5.994000000000e+05-1.862645149230e-09 1.916805763570e+00 1.490116119380e-08
     9.758769920510e-01 3.041250000000e+02 7.988848402800e-01-5.983463520990e-09
    -4.143029716670e-11 2.580000000000e+02 2.148000000000e+03 0.000000000000e+00
     3.120000000000e+00 0.000000000000e+00 1.862645149230e-09 0.000000000000e+00
     6.001300000000e+05                                                         
E02 2021 03 13 22 40 00 2.048090682365e-04 2.714273250604e-12 0.000000000000e+00
     1.040000000000e+02-2.887500000000e+01 3.438714664840e-09 1.842188285439e+00
    -1.246109604836e-06 4.251177888364e-04 2.011656761169e-06 5.440596485138e+03
     6.000000000000e+05-2.235174179077e-08 1.914784569617e+00 3.725290298462e-09
     9.783824440702e-01 3.035000000000e+02 4.230079706085e-01-5.929532703123e-09
    -4.143029716675e-11 5.170000000000e+02 2.148000000000e+03 0.000000000000e+00
     3.120000000000e+00 0.000000000000e+00-1.396983861923e-09-2.095475792885e-09
     6.006550000000e+05                                                         
E04 2021 03 13 22 40 00-7.283124723472e-04-7.844391802792e-12 0.000000000000e+00
     1.040000000000e+02-1.215000000000e+02 2.918335846116e-09 2.150297125261e+00
    -5.658715963364e-06 1.772738760337e-04 1.151300966740e-05 5.440627153397e+03
     6.000000000000e+05-3.539025783539e-08-1.829947387168e-01 7.450580596924e-08
     9.552112890015e-01 9.150000000000e+01-1.716172232433e+00-5.504514999430e-09
    -3.564434187277e-10 5.170000000000e+02 2.148000000000e+03 0.000000000000e+00
     3.120000000000e+00 0.000000000000e+00-3.259629011154e-09-3.492459654808e-09
     6.006640000000e+05                                                         
E12 2021 03 13 22 40 00 5.311751971021e-03-1.885780420707e-11 0.000000000000e+00
     1.040000000000e+02 1.301875000000e+02 2.641895759848e-09 2.889094881736e+00
     6.038695573807e-06 4.704520106316e-04 9.860843420029e-06 5.440611850739e+03
     6.000000000000e+05-4.656612873077e-08-2.286279642690e+00-2.793967723846e-08
     9.911434009410e-01 1.431562500000e+02-3.357672795864e-01-5.340222441700e-09
     4.585905307078e-10 5.170000000000e+02 2.148000000000e+03 0.000000000000e+00
     3.120000000000e+00 0.000000000000e+00-1.071020960808e-08-1.071020960808e-08
     6.006640000000e+05                                                         
E09 2021 03 13 22 40 00 5.735777376685e-03-1.264766069653e-11 0.000000000000e+00
     1.040000000000e+02-1.091562500000e+02 2.857976189037e-09 1.340556860831e-01
    -5.185604095459e-06 2.733927685767e-04 1.130998134613e-05 5.440631614685e+03
     6.000000000000e+05 2.048909664154e-08-1.881993521270e-01 2.235174179077e-08
     9.611648126010e-01 9.743750000000e+01-5.006597690490e-01-5.526301621216e-09
    -4.128743407307e-10 5.170000000000e+02 2.148000000000e+03 0.000000000000e+00
     3.120000000000e+00 0.000000000000e+00 1.862645149231e-09 1.862645149231e-09
     6.006640000000e+05                                                         
E19 2021 03 13 22 40 00 2.261087647639e-04 9.549694368616e-12 0.000000000000e+00
     1.040000000000e+02-1.295937500000e+02 2.810831368123e-09-2.936513961022e+00
    -5.982816219330e-06 1.847301609814e-04 1.153349876404e-05 5.440627038956e+03
     6.000000000000e+05-8.754432201385e-08-1.829638506645e-01-1.359730958939e-07
     9.609037007418e-01 9.600000000000e+01-2.046753839010e+00-5.421297247362e-09
    -4.593048461762e-10 5.170000000000e+02 2.148000000000e+03 0.000000000000e+00
     3.120000000000e+00 0.000000000000e+00-3.725290298462e-09-3.958120942116e-09
     6.006640000000e+05                                                         
E11 2021 03 13 22 40 00 6.210810388438e-03-4.378364337754e-11 1.734723475977e-18
     1.040000000000e+02 1.287500000000e+02 2.715470253093e-09 1.616172366375e+00
     6.083399057388e-06 4.104999825358e-04 9.736046195030e-06 5.440614894867e+03
     6.000000000000e+05-6.519258022308e-08-2.286270398510e+00 5.960464477539e-08
     9.911291916177e-01 1.474062500000e+02 1.305728658097e-01-5.422368720565e-09
     4.678766317969e-10 5.170000000000e+02 2.148000000000e+03 0.000000000000e+00
     3.120000000000e+00 0.000000000000e+00-1.350417733192e-08-1.443549990654e-08
     6.006640000000e+05                                                         
E12 2021 03 13 22 40 00 5.311751679983e-03-1.885780420707e-11 0.000000000000e+00
     1.040000000000e+02 1.301875000000e+02 2.641895759848e-09 2.889094881736e+00
     6.038695573807e-06 4.704520106316e-04 9.860843420029e-06 5.440611850739e+03
     6.000000000000e+05-4.656612873077e-08-2.286279642690e+00-2.793967723846e-08
     9.911434009410e-01 1.431562500000e+02-3.357672795864e-01-5.340222441700e-09
     4.585905307078e-10 2.580000000000e+02 2.148000000000e+03 0.000000000000e+00
     3.120000000000e+00 0.000000000000e+00-1.071020960808e-08 0.000000000000e+00
     6.007000000000e+05                                                         
E11 2021 03 13 22 40 00 6.210811785422e-03-4.378364337754e-11 1.734723475977e-18
     1.040000000000e+02 1.287500000000e+02 2.715470253093e-09 1.616172366375e+00
     6.083399057388e-06 4.104999825358e-04 9.736046195030e-06 5.440614894867e+03
     6.000000000000e+05-6.519258022308e-08-2.286270398510e+00 5.960464477539e-08
     9.911291916177e-01 1.474062500000e+02 1.305728658097e-01-5.422368720565e-09
     4.678766317969e-10 2.580000000000e+02 2.148000000000e+03 0.000000000000e+00
     3.120000000000e+00 0.000000000000e+00-1.350417733192e-08 0.000000000000e+00
     6.007500000000e+05                                                         
E04 2021 03 13 22 40 00-7.283121813089e-04-7.830180948076e-12 0.000000000000e+00
     1.040000000000e+02-1.215000000000e+02 2.918335846116e-09 2.150297125261e+00
    -5.658715963364e-06 1.772738760337e-04 1.151300966740e-05 5.440627153397e+03
     6.000000000000e+05-3.539025783539e-08-1.829947387168e-01 7.450580596924e-08
     9.552112890015e-01 9.150000000000e+01-1.716172232433e+00-5.504514999430e-09
    -3.564434187277e-10 2.580000000000e+02 2.148000000000e+03 0.000000000000e+00
     3.120000000000e+00 0.000000000000e+00-3.259629011154e-09 0.000000000000e+00
     6.007500000000e+05                                                         
E09 2021 03 13 22 40 00 5.735777318478e-03-1.263344984181e-11 0.000000000000e+00
     1.040000000000e+02-1.091562500000e+02 2.857976189037e-09 1.340556860831e-01
    -5.185604095459e-06 2.733927685767e-04 1.130998134613e-05 5.440631614685e+03
     6.000000000000e+05 2.048909664154e-08-1.881993521270e-01 2.235174179077e-08
     9.611648126010e-01 9.743750000000e+01-5.006597690490e-01-5.526301621216e-09
    -4.128743407307e-10 2.580000000000e+02 2.148000000000e+03 0.000000000000e+00
     3.120000000000e+00 0.000000000000e+00 1.862645149231e-09 0.000000000000e+00
     6.007500000000e+05                                                         
E19 2021 03 13 22 40 00 2.261089393869e-04 9.563905223331e-12 0.000000000000e+00
     1.040000000000e+02-1.295937500000e+02 2.810831368123e-09-2.936513961022e+00
    -5.982816219330e-06 1.847301609814e-04 1.153349876404e-05 5.440627038956e+03
     6.000000000000e+05-8.754432201385e-08-1.829638506645e-01-1.359730958939e-07
     9.609037007418e-01 9.600000000000e+01-2.046753839010e+00-5.421297247362e-09
    -4.593048461762e-10 2.580000000000e+02 2.148000000000e+03 0.000000000000e+00
     3.120000000000e+00 0.000000000000e+00-3.725290298462e-09 0.000000000000e+00
     6.007500000000e+05                                                         
E02 2021 03 13 22 40 00 2.048096503131e-04 2.714273250604e-12 0.000000000000e+00
     1.040000000000e+02-2.887500000000e+01 3.438714664840e-09 1.842188285439e+00
    -1.246109604836e-06 4.251177888364e-04 2.011656761169e-06 5.440596485138e+03
     6.000000000000e+05-2.235174179077e-08 1.914784569617e+00 3.725290298462e-09
     9.783824440702e-01 3.035000000000e+02 4.230079706085e-01-5.929532703123e-09
    -4.143029716675e-11 2.580000000000e+02 2.148000000000e+03 0.000000000000e+00
     3.120000000000e+00 0.000000000000e+00-1.396983861923e-09 0.000000000000e+00
     6.008500000000e+05                                                         
E30 2021 03 13 22 40 00 3.109349519950e-03-3.059597020180e-11 0.000000000000e+00
     1.040000000000e+02-2.203125000000e+01 3.509789053940e-09 6.978887913780e-01
    -1.160427927970e-06 5.195899866520e-04 1.849606633190e-06 5.440592145920e+03
     6.000000000000e+05-1.862645149230e-09 1.916802166250e+00 1.490116119380e-08
     9.758769642550e-01 3.039375000000e+02 7.989519955350e-01-5.983106363250e-09
    -4.035882396420e-11 5.170000000000e+02 2.148000000000e+03 0.000000000000e+00
     3.120000000000e+00 0.000000000000e+00 1.862645149230e-09 1.862645149230e-09
     6.006940000000e+05                                                         
